{"type": "FeatureCollection", "features": [ {"type": "Feature", "properties": {"norad_id": 32260, "name": "GPS BIIRM-4 (PRN 15)", "group": "gnss", "lat": -20.56536281588379, "lon": 72.18408712934655, "alt_km": 20333.9056187508, "timestamp": "2025-12-06T05:40:09.482760+00:00", "meta": {"OBJECT_NAME": "GPS BIIRM-4 (PRN 15)", "OBJECT_ID": "2007-047A", "EPOCH": "2025-12-05T06:35:49.168896", "MEAN_MOTION": 2.0056471, "ECCENTRICITY": 0.01643532, "INCLINATION": 53.9502, "RA_OF_ASC_NODE": 88.0669, "ARG_OF_PERICENTER": 85.1619, "MEAN_ANOMALY": 276.6895, "EPHEMERIS_TYPE": 0, "CLASSIFICATION_TYPE": "U", "NORAD_CAT_ID": 32260, "ELEMENT_SET_NO": 999, "REV_AT_EPOCH": 13292, "BSTAR": 0, "MEAN_MOTION_DOT": -2.6e-07, "MEAN_MOTION_DDOT": 0}, "tle": {"line1": "1 32260U 07047A   25339.27487464 -.00000026  00000+0  00000+0 0  9992", "line2": "2 32260  53.9502  88.0669 0164353  85.1619 276.6895  2.00564710132923"}}, "geometry": {"type": "Point", "coordinates": [72.18408712934655, -20.56536281588379]}}, {"type": "Feature", "properties": {"norad_id": 32275, "name": "COSMOS 2433 (720)", "group": "gnss", "lat": 33.769224077663814, "lon": 124.81685393858768, "alt_km": 19130.830022969294, "timestamp": "2025-12-06T05:40:09.482772+00:00", "meta": {"OBJECT_NAME": "COSMOS 2433 (720)", "OBJECT_ID": "2007-052A", "EPOCH": "2025-12-05T02:41:16.124352", "MEAN_MOTION": 2.13103909, "ECCENTRICITY": 0.00055104, "INCLINATION": 65.6874, "RA_OF_ASC_NODE": 322.462, "ARG_OF_PERICENTER": 252.9111, "MEAN_ANOMALY": 107.0273, "EPHEMERIS_TYPE": 0, "CLASSIFICATION_TYPE": "U", "NORAD_CAT_ID": 32275, "ELEMENT_SET_NO": 999, "REV_AT_EPOCH": 14092, "BSTAR": 0, "MEAN_MOTION_DOT": -4.7e-07, "MEAN_MOTION_DDOT": 0}, "tle": {"line1": "1 32275U 07052A   25339.11199218 -.00000047  00000+0  00000+0 0  9997", "line2": "2 32275  65.6874 322.4620 0005510 252.9111 107.0273  2.13103909140922"}}, "geometry": {"type": "Point", "coordinates": [124.81685393858768, 33.769224077663814]}}, {"type": "Feature", "properties": {"norad_id": 32276, "name": "COSMOS 2432 (719)", "group": "gnss", "lat": 65.51681841919567, "lon": 45.32759215979024, "alt_km": 19143.328587022716, "timestamp": "2025-12-06T05:40:09.482784+00:00", "meta": {"OBJECT_NAME": "COSMOS 2432 (719)", "OBJECT_ID": "2007-052B", "EPOCH": "2025-12-04T17:08:15.006912", "MEAN_MOTION": 2.13103047, "ECCENTRICITY": 0.00112577, "INCLINATION": 65.7035, "RA_OF_ASC_NODE": 322.5994, "ARG_OF_PERICENTER": 311.684, "MEAN_ANOMALY": 47.4656, "EPHEMERIS_TYPE": 0, "CLASSIFICATION_TYPE": "U", "NORAD_CAT_ID": 32276, "ELEMENT_SET_NO": 999, "REV_AT_EPOCH": 14093, "BSTAR": 0, "MEAN_MOTION_DOT": -4.6e-07, "MEAN_MOTION_DDOT": 0}, "tle": {"line1": "1 32276U 07052B   25338.71406258 -.00000046  00000+0  00000+0 0  9997", "line2": "2 32276  65.7035 322.5994 0011257 311.6840  47.4656  2.13103047140931"}}, "geometry": {"type": "Point", "coordinates": [45.32759215979024, 65.51681841919567]}}, {"type": "Feature", "properties": {"norad_id": 32384, "name": "GPS BIIRM-5 (PRN 29)", "group": "gnss", "lat": 52.60201007947693, "lon": 36.53083100550076, "alt_km": 20129.319532637757, "timestamp": "2025-12-06T05:40:09.482796+00:00", "meta": {"OBJECT_NAME": "GPS BIIRM-5 (PRN 29)", "OBJECT_ID": "2007-062A", "EPOCH": "2025-12-05T07:59:29.428800", "MEAN_MOTION": 2.00576795, "ECCENTRICITY": 0.00322138, "INCLINATION": 55.1888, "RA_OF_ASC_NODE": 281.943, "ARG_OF_PERICENTER": 162.7364, "MEAN_ANOMALY": 9.9869, "EPHEMERIS_TYPE": 0, "CLASSIFICATION_TYPE": "U", "NORAD_CAT_ID": 32384, "ELEMENT_SET_NO": 999, "REV_AT_EPOCH": 13162, "BSTAR": 0, "MEAN_MOTION_DOT": -3.8e-07, "MEAN_MOTION_DDOT": 0}, "tle": {"line1": "1 32384U 07062A   25339.33297950 -.00000038  00000+0  00000+0 0  9995", "line2": "2 32384  55.1888 281.9430 0032213 162.7364   9.9869  2.00576795131629"}}, "geometry": {"type": "Point", "coordinates": [36.53083100550076, 52.60201007947693]}}, {"type": "Feature", "properties": {"norad_id": 32393, "name": "COSMOS 2434 (721)", "group": "gnss", "lat": 29.349123387474915, "lon": -145.87262776447386, "alt_km": 19117.86231277023, "timestamp": "2025-12-06T05:40:09.482808+00:00", "meta": {"OBJECT_NAME": "COSMOS 2434 (721)", "OBJECT_ID": "2007-065A", "EPOCH": "2025-12-01T06:30:38.524608", "MEAN_MOTION": 2.13101181, "ECCENTRICITY": 0.00043375, "INCLINATION": 64.3147, "RA_OF_ASC_NODE": 198.5905, "ARG_OF_PERICENTER": 70.7489, "MEAN_ANOMALY": 113.3938, "EPHEMERIS_TYPE": 0, "CLASSIFICATION_TYPE": "U", "NORAD_CAT_ID": 32393, "ELEMENT_SET_NO": 999, "REV_AT_EPOCH": 13955, "BSTAR": 0, "MEAN_MOTION_DOT": 1.02e-06, "MEAN_MOTION_DDOT": 0}, "tle": {"line1": "1 32393U 07065A   25335.27127922  .00000102  00000+0  00000+0 0  9999", "line2": "2 32393  64.3147 198.5905 0004337  70.7489 113.3938  2.13101181139555"}}, "geometry": {"type": "Point", "coordinates": [-145.87262776447386, 29.349123387474915]}}, {"type": "Feature", "properties": {"norad_id": 32395, "name": "COSMOS 2436 (723)", "group": "gnss", "lat": 12.393487673591126, "lon": 12.428446938850133, "alt_km": 19170.630768800842, "timestamp": "2025-12-06T05:40:09.482820+00:00", "meta": {"OBJECT_NAME": "COSMOS 2436 (723)", "OBJECT_ID": "2007-065C", "EPOCH": "2025-12-05T01:59:21.660576", "MEAN_MOTION": 2.13099981, "ECCENTRICITY": 0.00177317, "INCLINATION": 64.3234, "RA_OF_ASC_NODE": 198.532, "ARG_OF_PERICENTER": 8.9856, "MEAN_ANOMALY": 352.3973, "EPHEMERIS_TYPE": 0, "CLASSIFICATION_TYPE": "U", "NORAD_CAT_ID": 32395, "ELEMENT_SET_NO": 999, "REV_AT_EPOCH": 13959, "BSTAR": 0, "MEAN_MOTION_DOT": 9.2e-07, "MEAN_MOTION_DDOT": 0}, "tle": {"line1": "1 32395U 07065C   25339.08288959  .00000092  00000+0  00000+0 0  9990", "line2": "2 32395  64.3234 198.5320 0017731   8.9856 352.3973  2.13099981139590"}}, "geometry": {"type": "Point", "coordinates": [12.428446938850133, 12.393487673591126]}}, {"type": "Feature", "properties": {"norad_id": 32711, "name": "GPS BIIRM-6 (PRN 07)", "group": "gnss", "lat": 24.669403673233262, "lon": 176.79148882304474, "alt_km": 20620.587266893992, "timestamp": "2025-12-06T05:40:09.482833+00:00", "meta": {"OBJECT_NAME": "GPS BIIRM-6 (PRN 07)", "OBJECT_ID": "2008-012A", "EPOCH": "2025-12-04T04:45:15.966144", "MEAN_MOTION": 2.00565138, "ECCENTRICITY": 0.0202113, "INCLINATION": 54.4758, "RA_OF_ASC_NODE": 157.7139, "ARG_OF_PERICENTER": 244.8547, "MEAN_ANOMALY": 113.0665, "EPHEMERIS_TYPE": 0, "CLASSIFICATION_TYPE": "U", "NORAD_CAT_ID": 32711, "ELEMENT_SET_NO": 999, "REV_AT_EPOCH": 12984, "BSTAR": 0, "MEAN_MOTION_DOT": 9.2e-07, "MEAN_MOTION_DDOT": 0}, "tle": {"line1": "1 32711U 08012A   25338.19810146  .00000092  00000+0  00000+0 0  9995", "line2": "2 32711  54.4758 157.7139 0202113 244.8547 113.0665  2.00565138129841"}}, "geometry": {"type": "Point", "coordinates": [176.79148882304474, 24.669403673233262]}}, {"type": "Feature", "properties": {"norad_id": 35752, "name": "GPS BIIRM-8 (PRN 05)", "group": "gnss", "lat": 38.94007655008666, "lon": 67.95746242847935, "alt_km": 20060.62136234048, "timestamp": "2025-12-06T05:40:09.482845+00:00", "meta": {"OBJECT_NAME": "GPS BIIRM-8 (PRN 05)", "OBJECT_ID": "2009-043A", "EPOCH": "2025-12-01T04:42:32.815296", "MEAN_MOTION": 2.00566259, "ECCENTRICITY": 0.00521242, "INCLINATION": 56.0822, "RA_OF_ASC_NODE": 35.2386, "ARG_OF_PERICENTER": 82.0997, "MEAN_ANOMALY": 288.3285, "EPHEMERIS_TYPE": 0, "CLASSIFICATION_TYPE": "U", "NORAD_CAT_ID": 35752, "ELEMENT_SET_NO": 999, "REV_AT_EPOCH": 11939, "BSTAR": 0, "MEAN_MOTION_DOT": -6.6e-07, "MEAN_MOTION_DDOT": 0}, "tle": {"line1": "1 35752U 09043A   25335.19621314 -.00000066  00000+0  00000+0 0  9994", "line2": "2 35752  56.0822  35.2386 0052124  82.0997 288.3285  2.00566259119397"}}, "geometry": {"type": "Point", "coordinates": [67.95746242847935, 38.94007655008666]}}, {"type": "Feature", "properties": {"norad_id": 36111, "name": "COSMOS 2456 (730)", "group": "gnss", "lat": -9.164440144918643, "lon": -98.10394083516734, "alt_km": 19133.730974686638, "timestamp": "2025-12-06T05:40:09.482858+00:00", "meta": {"OBJECT_NAME": "COSMOS 2456 (730)", "OBJECT_ID": "2009-070A", "EPOCH": "2025-12-02T04:31:21.819072", "MEAN_MOTION": 2.13103415, "ECCENTRICITY": 0.0002798, "INCLINATION": 64.8943, "RA_OF_ASC_NODE": 77.6987, "ARG_OF_PERICENTER": 298.3251, "MEAN_ANOMALY": 26.4531, "EPHEMERIS_TYPE": 0, "CLASSIFICATION_TYPE": "U", "NORAD_CAT_ID": 36111, "ELEMENT_SET_NO": 999, "REV_AT_EPOCH": 12422, "BSTAR": 0, "MEAN_MOTION_DOT": -2.2e-07, "MEAN_MOTION_DDOT": 0}, "tle": {"line1": "1 36111U 09070A   25336.18844698 -.00000022  00000+0  00000+0 0  9998", "line2": "2 36111  64.8943  77.6987 0002798 298.3251  26.4531  2.13103415124220"}}, "geometry": {"type": "Point", "coordinates": [-98.10394083516734, -9.164440144918643]}}, {"type": "Feature", "properties": {"norad_id": 36112, "name": "COSMOS 2457 (733)", "group": "gnss", "lat": -36.17354065426667, "lon": 57.38883792777608, "alt_km": 19146.507536874407, "timestamp": "2025-12-06T05:40:09.482870+00:00", "meta": {"OBJECT_NAME": "COSMOS 2457 (733)", "OBJECT_ID": "2009-070B", "EPOCH": "2025-12-04T10:10:53.328576", "MEAN_MOTION": 2.13100784, "ECCENTRICITY": 0.00048679, "INCLINATION": 64.8808, "RA_OF_ASC_NODE": 77.4701, "ARG_OF_PERICENTER": 156.7423, "MEAN_ANOMALY": 212.4815, "EPHEMERIS_TYPE": 0, "CLASSIFICATION_TYPE": "U", "NORAD_CAT_ID": 36112, "ELEMENT_SET_NO": 999, "REV_AT_EPOCH": 12428, "BSTAR": 0, "MEAN_MOTION_DOT": -2.6e-07, "MEAN_MOTION_DDOT": 0}, "tle": {"line1": "1 36112U 09070B   25338.42422834 -.00000026  00000+0  00000+0 0  9996", "line2": "2 36112  64.8808  77.4701 0004867 156.7423 212.4815  2.13100784124284"}}, "geometry": {"type": "Point", "coordinates": [57.38883792777608, -36.17354065426667]}}]}